{
  "type": "FeatureCollection",
  "features": [
    {
      "type": "Feature",
      "properties": {
        "norad_id": 39773,
        "name": "EUTELSAT 3B",
        "group": "eutelsat",
        "lat": 0.029579939918676842,
        "lon": 147.43797878998808,
        "alt_km": 35784.169271001825,
        "timestamp": "2025-12-15T04:01:20.114384+00:00",
        "meta_object_name": "EUTELSAT 3B",
        "meta_object_id": "2014-030A",
        "meta_epoch": "2025-12-14T06:35:06.730944",
        "meta_mean_motion": 1.00271121,
        "meta_eccentricity": 0.00044298,
        "meta_inclination": 0.0607,
        "meta_ra_of_asc_node": 352.6855,
        "meta_arg_of_pericenter": 238.285,
        "meta_mean_anomaly": 314.0942,
        "meta_ephemeris_type": 0,
        "meta_classification_type": "U",
        "meta_norad_cat_id": 39773,
        "meta_element_set_no": 999,
        "meta_rev_at_epoch": 4221,
        "meta_bstar": 0,
        "meta_mean_motion_dot": 3.8e-07,
        "meta_mean_motion_ddot": 0,
        "tle_line1": "1 39773U 14030A   25348.27438346  .00000038  00000+0  00000+0 0  9995",
        "tle_line2": "2 39773   0.0607 352.6855 0004429 238.2850 314.0942  1.00271121 42212"
      },
      "geometry": {
        "type": "Point",
        "coordinates": [
          147.43797878998808,
          0.029579939918676842
        ]
      }
    },
    {
      "type": "Feature",
      "properties": {
        "norad_id": 40425,
        "name": "EUTELSAT 115 WEST B",
        "group": "eutelsat",
        "lat": 0.018625376238858425,
        "lon": 29.502400369339338,
        "alt_km": 35786.734102411836,
        "timestamp": "2025-12-15T04:01:20.114407+00:00",
        "meta_object_name": "EUTELSAT 115 WEST B",
        "meta_object_id": "2015-010B",
        "meta_epoch": "2025-12-14T06:01:24.957984",
        "meta_mean_motion": 1.00269913,
        "meta_eccentricity": 6.55e-06,
        "meta_inclination": 0.0421,
        "meta_ra_of_asc_node": 164.9612,
        "meta_arg_of_pericenter": 99.1168,
        "meta_mean_anomaly": 154.5568,
        "meta_ephemeris_type": 0,
        "meta_classification_type": "U",
        "meta_norad_cat_id": 40425,
        "meta_element_set_no": 999,
        "meta_rev_at_epoch": 3953,
        "meta_bstar": 0,
        "meta_mean_motion_dot": -7e-08,
        "meta_mean_motion_ddot": 0,
        "tle_line1": "1 40425U 15010B   25348.25098331 -.00000007  00000+0  00000+0 0  9991",
        "tle_line2": "2 40425   0.0421 164.9612 0000065  99.1168 154.5568  1.00269913 39533"
      },
      "geometry": {
        "type": "Point",
        "coordinates": [
          29.502400369339338,
          0.018625376238858425
        ]
      }
    },
    {
      "type": "Feature",
      "properties": {
        "norad_id": 40875,
        "name": "EUTELSAT 8 WEST B",
        "group": "eutelsat",
        "lat": 0.06269443594887233,
        "lon": 136.37416736706402,
        "alt_km": 35797.00219387973,
        "timestamp": "2025-12-15T04:01:20.114420+00:00",
        "meta_object_name": "EUTELSAT 8 WEST B",
        "meta_object_id": "2015-039B",
        "meta_epoch": "2025-12-14T06:31:52.042368",
        "meta_mean_motion": 1.00271739,
        "meta_eccentricity": 0.00042442,
        "meta_inclination": 0.0667,
        "meta_ra_of_asc_node": 11.477,
        "meta_arg_of_pericenter": 252.389,
        "meta_mean_anomaly": 269.3077,
        "meta_ephemeris_type": 0,
        "meta_classification_type": "U",
        "meta_norad_cat_id": 40875,
        "meta_element_set_no": 999,
        "meta_rev_at_epoch": 3780,
        "meta_bstar": 0,
        "meta_mean_motion_dot": -4.8e-07,
        "meta_mean_motion_ddot": 0,
        "tle_line1": "1 40875U 15039B   25348.27213012 -.00000048  00000+0  00000+0 0  9993",
        "tle_line2": "2 40875   0.0667  11.4770 0004244 252.3890 269.3077  1.00271739 37800"
      },
      "geometry": {
        "type": "Point",
        "coordinates": [
          136.37416736706402,
          0.06269443594887233
        ]
      }
    },
    {
      "type": "Feature",
      "properties": {
        "norad_id": 41310,
        "name": "EUTELSAT 9B",
        "group": "eutelsat",
        "lat": 0.04636353010925958,
        "lon": 153.34473630212938,
        "alt_km": 35795.41907909507,
        "timestamp": "2025-12-15T04:01:20.114433+00:00",
        "meta_object_name": "EUTELSAT 9B",
        "meta_object_id": "2016-005A",
        "meta_epoch": "2025-12-14T06:36:44.076096",
        "meta_mean_motion": 1.00270697,
        "meta_eccentricity": 0.00045783,
        "meta_inclination": 0.0487,
        "meta_ra_of_asc_node": 66.6131,
        "meta_arg_of_pericenter": 204.9035,
        "meta_mean_anomaly": 279.8585,
        "meta_ephemeris_type": 0,
        "meta_classification_type": "U",
        "meta_norad_cat_id": 41310,
        "meta_element_set_no": 999,
        "meta_rev_at_epoch": 3626,
        "meta_bstar": 0,
        "meta_mean_motion_dot": 7.9e-07,
        "meta_mean_motion_ddot": 0,
        "tle_line1": "1 41310U 16005A   25348.27551014  .00000079  00000+0  00000+0 0  9992",
        "tle_line2": "2 41310   0.0487  66.6131 0004578 204.9035 279.8585  1.00270697 36263"
      },
      "geometry": {
        "type": "Point",
        "coordinates": [
          153.34473630212938,
          0.04636353010925958
        ]
      }
    },
    {
      "type": "Feature",
      "properties": {
        "norad_id": 41382,
        "name": "EUTELSAT 65 WEST A",
        "group": "eutelsat",
        "lat": 0.06641716196625094,
        "lon": 79.20483421826435,
        "alt_km": 35796.29668206005,
        "timestamp": "2025-12-15T04:01:20.114445+00:00",
        "meta_object_name": "EUTELSAT 65 WEST A",
        "meta_object_id": "2016-014A",
        "meta_epoch": "2025-12-14T06:15:38.595168",
        "meta_mean_motion": 1.00271529,
        "meta_eccentricity": 0.00024327,
        "meta_inclination": 0.0532,
        "meta_ra_of_asc_node": 18.0834,
        "meta_arg_of_pericenter": 253.6645,
        "meta_mean_anomaly": 200.1459,
        "meta_ephemeris_type": 0,
        "meta_classification_type": "U",
        "meta_norad_cat_id": 41382,
        "meta_element_set_no": 999,
        "meta_rev_at_epoch": 3568,
        "meta_bstar": 0,
        "meta_mean_motion_dot": -2.59e-06,
        "meta_mean_motion_ddot": 0,
        "tle_line1": "1 41382U 16014A   25348.26086337 -.00000259  00000+0  00000+0 0  9992",
        "tle_line2": "2 41382   0.0532  18.0834 0002432 253.6645 200.1459  1.00271529 35686"
      },
      "geometry": {
        "type": "Point",
        "coordinates": [
          79.20483421826435,
          0.06641716196625094
        ]
      }
    },
    {
      "type": "Feature",
      "properties": {
        "norad_id": 41589,
        "name": "EUTELSAT 117 WEST B",
        "group": "eutelsat",
        "lat": -0.008764940207269182,
        "lon": 27.408921584628313,
        "alt_km": 35786.403872592666,
        "timestamp": "2025-12-15T04:01:20.114457+00:00",
        "meta_object_name": "EUTELSAT 117 WEST B",
        "meta_object_id": "2016-038B",
        "meta_epoch": "2025-12-14T06:02:39.838272",
        "meta_mean_motion": 1.0027082,
        "meta_eccentricity": 6.6e-06,
        "meta_inclination": 0.0106,
        "meta_ra_of_asc_node": 154.7205,
        "meta_arg_of_pericenter": 341.1575,
        "meta_mean_anomaly": 280.9745,
        "meta_ephemeris_type": 0,
        "meta_classification_type": "U",
        "meta_norad_cat_id": 41589,
        "meta_element_set_no": 999,
        "meta_rev_at_epoch": 3480,
        "meta_bstar": 0,
        "meta_mean_motion_dot": 6e-08,
        "meta_mean_motion_ddot": 0,
        "tle_line1": "1 41589U 16038B   25348.25184998  .00000006  00000+0  00000+0 0  9997",
        "tle_line2": "2 41589   0.0106 154.7205 0000066 341.1575 280.9745  1.00270820 34808"
      },
      "geometry": {
        "type": "Point",
        "coordinates": [
          27.408921584628313,
          -0.008764940207269182
        ]
      }
    },
    {
      "type": "Feature",
      "properties": {
        "norad_id": 42741,
        "name": "EUTELSAT 172B",
        "group": "eutelsat",
        "lat": -0.020905154120964803,
        "lon": -43.61775353797648,
        "alt_km": 35786.19535643552,
        "timestamp": "2025-12-15T04:01:20.114469+00:00",
        "meta_object_name": "EUTELSAT 172B",
        "meta_object_id": "2017-029B",
        "meta_epoch": "2025-12-14T05:40:34.455360",
        "meta_mean_motion": 1.00271195,
        "meta_eccentricity": 8.89e-06,
        "meta_inclination": 0.044,
        "meta_ra_of_asc_node": 150.7098,
        "meta_arg_of_pericenter": 253.2021,
        "meta_mean_anomaly": 296.3754,
        "meta_ephemeris_type": 0,
        "meta_classification_type": "U",
        "meta_norad_cat_id": 42741,
        "meta_element_set_no": 999,
        "meta_rev_at_epoch": 3187,
        "meta_bstar": 0,
        "meta_mean_motion_dot": 1.2e-07,
        "meta_mean_motion_ddot": 0,
        "tle_line1": "1 42741U 17029B   25348.23650990  .00000012  00000+0  00000+0 0  9994",
        "tle_line2": "2 42741   0.0440 150.7098 0000088 253.2021 296.3754  1.00271195 31870"
      },
      "geometry": {
        "type": "Point",
        "coordinates": [
          -43.61775353797648,
          -0.020905154120964803
        ]
      }
    }
  ]
}